KUIPER-00044            
1 64505U 25134F   25364.73467255  .00000155  00000+0  49790-4 0  9997
2 64505  51.8985 191.5126 0012238  46.1673 314.0299 14.79912291 29673
KUIPER-00046            
1 64506U 25134G   25364.72115744  .00004149  00000+0  56178-3 0  9994
2 64506  51.8973 187.8543 0013122  56.1838 304.0372 14.80745982 29729
KUIPER-00047            
1 64507U 25134H   25365.00002315 -.00013317  00000+0 -17973-2 0  9994
2 64507  51.8967 158.1625 0001799  39.1113 170.9440 14.78121751  4907
KUIPER-00048            
1 64508U 25134J   25364.63353220  .00005711  00000+0  77690-3 0  9997
2 64508  51.8972 160.9482 0002485 190.9504 169.1405 14.79966901 30094
KUIPER-00049            
1 64509U 25134K   25364.88855475  .00002251  00000+0  32411-3 0  9992
2 64509  51.9000 173.2936 0002346  70.5772 289.5444 14.79952511 29949
KUIPER-00050            
1 64510U 25134L   25364.87265448  .00009612  00000+0  85105-3 0  9994
2 64510  51.8886 164.6714 0005047  91.7674 268.3873 14.96827177 30061
KUIPER-00051            
1 64511U 25134M   25364.68869091  .00005627  00000+0  76535-3 0  9997
2 64511  51.8993 171.7449 0003043  77.9299 282.2004 14.79995501 29942
KUIPER-00052            
1 64512U 25134N   25365.00002315  .00092035  00000+0  58647-3 0  9996
2 64512  51.8595 101.5278 0001358 103.1131 296.2294 15.75653951  5932
